{
  "result": 1,
  "content": "",
  "data": {
    "restaurants": [{
      "id_restaurant": "283193",
      "name": {
        "text": "C D\u00e9cal\u00e9",
        "highlight": [{
          "offset": 0,
          "length": 1
        }]
      },
      "city": "Paris",
      "zipcode": "75017",
      "is_spellchecked_result": false
    }, {
      "id_restaurant": "342237",
      "name": {
        "text": "Madeleine C",
        "highlight": [{
          "offset": 10,
          "length": 1
        }]
      },
      "city": "Paris",
      "zipcode": "75008",
      "is_spellchecked_result": false
    }, {
      "id_restaurant": "338289",
      "name": {
        "text": "H&C Prestige",
        "highlight": [{
          "offset": 2,
          "length": 1
        }]
      },
      "city": "Paris",
      "zipcode": "75006",
      "is_spellchecked_result": false
    }, {
      "id_restaurant": "346215",
      "name": {
        "text": "C.H.A.N.G",
        "highlight": [{
          "offset": 0,
          "length": 1
        }]
      },
      "city": "Paris",
      "zipcode": "75001",
      "is_spellchecked_result": false
    }, {
      "id_restaurant": "30438",
      "name": {
        "text": "Le Bois le Vent",
        "highlight": [{
          "offset": 0,
          "length": 2
        }, {
          "offset": 8,
          "length": 2
        }]
      },
      "city": "Paris",
      "zipcode": "75016",
      "is_spellchecked_result": false
    }, {
      "id_restaurant": "79760",
      "name": {
        "text": "Le President",
        "highlight": [{
          "offset": 0,
          "length": 2
        }]
      },
      "city": "Paris",
      "zipcode": "75011",
      "is_spellchecked_result": false
    }, {
      "id_restaurant": "79407",
      "name": {
        "text": "Le Wood",
        "highlight": [{
          "offset": 0,
          "length": 2
        }]
      },
      "city": "Paris",
      "zipcode": "75003",
      "is_spellchecked_result": false
    }, {
      "id_restaurant": "305769",
      "name": {
        "text": "Le Jourdain",
        "highlight": [{
          "offset": 0,
          "length": 2
        }]
      },
      "city": "Paris",
      "zipcode": "75020",
      "is_spellchecked_result": false
    }, {
      "id_restaurant": "211469",
      "name": {
        "text": "Le Mordant",
        "highlight": [{
          "offset": 0,
          "length": 2
        }]
      },
      "city": "Paris",
      "zipcode": "75010",
      "is_spellchecked_result": false
    }, {
      "id_restaurant": "335779",
      "name": {
        "text": "Le Brun",
        "highlight": [{
          "offset": 0,
          "length": 2
        }]
      },
      "city": "Paris",
      "zipcode": "75001",
      "is_spellchecked_result": false
    }]
  }
}
